[{"OBJECT_NAME":"STARLINK-36136","OBJECT_ID":"2025-288J","EPOCH":"2026-03-09T22:05:54.793248","MEAN_MOTION":15.27584821,"ECCENTRICITY":0.00013373,"INCLINATION":43.0033,"RA_OF_ASC_NODE":22.0707,"ARG_OF_PERICENTER":242.9607,"MEAN_ANOMALY":117.1108,"EPHEMERIS_TYPE":0,"CLASSIFICATION_TYPE":"U","NORAD_CAT_ID":66967,"ELEMENT_SET_NO":999,"REV_AT_EPOCH":1532,"BSTAR":0.001275511,"MEAN_MOTION_DOT":0.00035009,"MEAN_MOTION_DDOT":0},{"OBJECT_NAME":"CRRES DEB [CANISTER]","OBJECT_ID":"1990-065K","EPOCH":"2026-03-07T06:14:24.153792","MEAN_MOTION":2.44853821,"ECCENTRICITY":0.7044102,"INCLINATION":16.9154,"RA_OF_ASC_NODE":102.2922,"ARG_OF_PERICENTER":63.387,"MEAN_ANOMALY":350.7416,"EPHEMERIS_TYPE":0,"CLASSIFICATION_TYPE":"U","NORAD_CAT_ID":21594,"ELEMENT_SET_NO":999,"REV_AT_EPOCH":30512,"BSTAR":0.00057382,"MEAN_MOTION_DOT":-6.2e-7,"MEAN_MOTION_DDOT":0}]
